ICEYE-X72               
1 68504U 26067CS  26186.58336806 -.00005402  00000+0 -49586-3 0  9993
2 68504  97.7630 144.6502 0000228 334.2314 299.4500 14.94497120  5770
ICEYE-X82               
1 68996U 26100S   26186.27223732  .00004357  00000+0  44170-3 0  9995
2 68996  97.7340  83.3424 0005960  87.4858 272.7043 14.91395580  9395
