{"fetched_at":"2026-07-06T08:47:05.309Z","source":"https://celestrak.org/NORAD/elements/gp.php?NAME=ICEYE&FORMAT=JSON","constellation":"iceye","records":[{"OBJECT_NAME":"ICEYE-X72","OBJECT_ID":"2026-067CS","EPOCH":"2026-07-05T14:00:03.000384","CLASSIFICATION_TYPE":"U","MEAN_MOTION":14.9449712,"ECCENTRICITY":0.0000228,"INCLINATION":97.763,"RA_OF_ASC_NODE":144.6502,"ARG_OF_PERICENTER":334.2314,"MEAN_ANOMALY":299.45,"EPHEMERIS_TYPE":0,"NORAD_CAT_ID":68504,"ELEMENT_SET_NO":999,"REV_AT_EPOCH":577,"BSTAR":-0.0004958572,"MEAN_MOTION_DOT":-0.00005402,"MEAN_MOTION_DDOT":0},{"OBJECT_NAME":"ICEYE-X82","OBJECT_ID":"2026-100S","EPOCH":"2026-07-05T06:32:01.303584","CLASSIFICATION_TYPE":"U","MEAN_MOTION":14.9139558,"ECCENTRICITY":0.0005961,"INCLINATION":97.734,"RA_OF_ASC_NODE":83.3424,"ARG_OF_PERICENTER":87.4858,"MEAN_ANOMALY":272.7043,"EPHEMERIS_TYPE":0,"NORAD_CAT_ID":68996,"ELEMENT_SET_NO":999,"REV_AT_EPOCH":939,"BSTAR":0.0004417,"MEAN_MOTION_DOT":0.00004357,"MEAN_MOTION_DDOT":0}]}
